# ssystem_minor.ini new in Stellarium 0.16, with additions for SoCiS2016.
# Some clean-up can be done when processing this file for V0.20.
# - NEW split ssystem.ini into ssystem_major.ini (planets and moons) available in program folder from ssystem_minor.ini in user data directory.
# - all occurrences of tex_halo (not used as of 0.15 and earlier; already removed.)
# - all occurrences of texture=nomap.png are redundant (now simply loaded as default)
# - all occurrences of parent=Sun (default when loading). Keep parent=none for sun.
# - lighting=(true|false) will be ignored (processed like previous "true")
# - color=1.0,1.0,1.0 (now loaded as default; This influences the halo color and should always have at least one component 1.0.)
# Default values in the loader, to be removed from ssystem_*.ini: 
# - coord_func=kepler_orbit|comet_orbit|ell_orbit (these are now the same)
# - hidden=false
# - halo=true (changed from false: false only SSobserver, EarthObserver and Sun.)
# - albedo=0.25
# - roughness=0.90
# - texmap=nomap.png
# - parent=Sun
# - outgas_intensity=0.10     (comets only)
# - outgas_falloff=0.10       (comets only)
# - dust_widthfactor=1.50     (comets only)
# - dust_lengthfactor=0.4     (comets only)
# - dust_brightnessfactor=1.5 (comets only)
# From 0.20.0 on, coord_func defaults to kepler_orbit which replaces both ell_orbit and comet_orbit entries.
# For compatibility reasons, we must keep coord_func=comet_orbit in ssystem_minor.ini


[1014291998vf31]
absolute_magnitude             = 17.199999999999999
albedo                         = 0.14999999999999999
coord_func                     = comet_orbit
minor_planet_number            = 101429
name                           = 1998 VF31
orbit_ArgOfPericenter          = 310.52582
orbit_AscendingNode            = 221.29334
orbit_Eccentricity             = 0.1004626
orbit_Epoch                    = 2459600.5
orbit_Inclination              = 31.29525
orbit_MeanAnomaly              = 13.78565
orbit_MeanMotion               = 0.5237628
orbit_SemiMajorAxis            = 1.5242152
radius                         = 2
slope_parameter                = 0.14999999999999999
type                           = asteroid

[101955bennu]
absolute_magnitude             = 20.19
albedo                         = 0.046
color_index_bv                 = 0.64
coord_func                     = comet_orbit
minor_planet_number            = 101955
name                           = Bennu
orbit_ArgOfPericenter          = 66.3366
orbit_AscendingNode            = 1.99729
orbit_Eccentricity             = 0.2037192
orbit_Epoch                    = 2460000.5
orbit_Inclination              = 6.03387
orbit_MeanAnomaly              = 162.57657
orbit_MeanMotion               = 0.82489482
orbit_SemiMajorAxis            = 1.1259964
orbit_visualization_period     = 436.3678886544901
radius                         = 0.246
slope_parameter                = -0.08
spec_b                         = B
tex_map                        = bennu.png
type                           = asteroid

[10ptempel]
absolute_magnitude             = 5
albedo                         = 0.1
coord_func                     = comet_orbit
dust_brightnessfactor          = 1.5
dust_lengthfactor              = 0.40000000000000002
dust_widthfactor               = 1.5
name                           = 10P/Tempel
orbit_ArgOfPericenter          = 195.5261
orbit_AscendingNode            = 117.8148
orbit_Eccentricity             = 0.538072
orbit_Epoch                    = 2460029.5
orbit_Inclination              = 12.0351
orbit_PericenterDistance       = 1.414293
orbit_TimeAtPericenter         = 2459297.5459
orbit_good                     = 308
radius                         = 5
slope_parameter                = 10
type                           = comet

[116pwild]
absolute_magnitude             = 2.5
albedo                         = 0.1
coord_func                     = comet_orbit
dust_brightnessfactor          = 1.5
dust_lengthfactor              = 0.40000000000000002
dust_widthfactor               = 1.5
name                           = 116P/Wild
orbit_ArgOfPericenter          = 173.2596
orbit_AscendingNode            = 20.9787
orbit_Eccentricity             = 0.370395
orbit_Epoch                    = 2460029.5
orbit_Inclination              = 3.6034
orbit_PericenterDistance       = 2.196829
orbit_TimeAtPericenter         = 2459777.3216
orbit_good                     = 590
radius                         = 5
slope_parameter                = 10
type                           = comet

[120347salacia]
absolute_magnitude             = 4.1
albedo                         = 0.15
coord_func                     = comet_orbit
minor_planet_number            = 120347
name                           = Salacia
orbit_ArgOfPericenter          = 312.88349
orbit_AscendingNode            = 280.0902
orbit_Eccentricity             = 0.100911
orbit_Epoch                    = 2460000.5
orbit_Inclination              = 23.92577
orbit_MeanAnomaly              = 126.33466
orbit_MeanMotion               = 0.00357559
orbit_SemiMajorAxis            = 42.3549528
radius                         = 496
type                           = cubewano

[1215141999uj7]
absolute_magnitude             = 17
albedo                         = 0.053
coord_func                     = comet_orbit
minor_planet_number            = 121514
name                           = 1999 UJ7
orbit_ArgOfPericenter          = 48.28693
orbit_AscendingNode            = 347.34929
orbit_Eccentricity             = 0.0392635
orbit_Epoch                    = 2459600.5
orbit_Inclination              = 16.75
orbit_MeanAnomaly              = 301.99933
orbit_MeanMotion               = 0.52358254
orbit_SemiMajorAxis            = 1.524565
radius                         = 2
type                           = asteroid

[136108haumea]
absolute_magnitude             = 0.2
albedo                         = 0.73
coord_func                     = comet_orbit
minor_planet_number            = 136108
name                           = Haumea
orbit_ArgOfPericenter          = 240.42227
orbit_AscendingNode            = 122.03105
orbit_Eccentricity             = 0.2000315
orbit_Epoch                    = 2460000.5
orbit_Inclination              = 28.21037
orbit_MeanAnomaly              = 219.49296
orbit_MeanMotion               = 0.00350667
orbit_SemiMajorAxis            = 42.9081516
orbit_visualization_period     = 104217.7286462600
radius                         = 3130
tex_map                        = haumea.png
type                           = dwarf planet

[136199eris]
absolute_magnitude             = -1.1
albedo                         = 0.689
coord_func                     = comet_orbit
minor_planet_number            = 136199
name                           = Eris
orbit_ArgOfPericenter          = 150.99379
orbit_AscendingNode            = 36.0706
orbit_Eccentricity             = 0.4319604
orbit_Epoch                    = 2460000.5
orbit_Inclination              = 43.76068
orbit_MeanAnomaly              = 208.76911
orbit_MeanMotion               = 0.00175204
orbit_SemiMajorAxis            = 68.1460186
orbit_visualization_period     = 203270.0112332937
radius                         = 1300
rot_periode                    = 8
type                           = dwarf planet

[136472makemake]
absolute_magnitude             = -0.1
albedo                         = 0.78
coord_func                     = comet_orbit
minor_planet_number            = 136472
name                           = Makemake
orbit_ArgOfPericenter          = 295.82359
orbit_AscendingNode            = 79.36117
orbit_Eccentricity             = 0.1661311
orbit_Epoch                    = 2460000.5
orbit_Inclination              = 29.01844
orbit_MeanAnomaly              = 167.57401
orbit_MeanMotion               = 0.0032364
orbit_SemiMajorAxis            = 45.2648419
orbit_visualization_period     = 113054.2239533638
radius                         = 1400
type                           = dwarf planet

[141pmachholz]
absolute_magnitude             = 12
albedo                         = 0.1
coord_func                     = comet_orbit
dust_brightnessfactor          = 1.5
dust_lengthfactor              = 0.40000000000000002
dust_widthfactor               = 1.5
name                           = 141P/Machholz
orbit_ArgOfPericenter          = 153.6063
orbit_AscendingNode            = 241.7893
orbit_Eccentricity             = 0.736067
orbit_Epoch                    = 2460029.5
orbit_Inclination              = 13.9568
orbit_PericenterDistance       = 0.807027
orbit_TimeAtPericenter         = 2459200.1147
orbit_good                     = 120
orbit_visualization_period     = 1921.650293936492
radius                         = 5
slope_parameter                = 12
type                           = comet

[144pkushida]
absolute_magnitude             = 8.5
albedo                         = 0.1
coord_func                     = comet_orbit
dust_brightnessfactor          = 1.5
dust_lengthfactor              = 0.40000000000000002
dust_widthfactor               = 1.5
name                           = 144P/Kushida
orbit_ArgOfPericenter          = 216.3491
orbit_AscendingNode            = 242.9549
orbit_Eccentricity             = 0.635061
orbit_Epoch                    = 2460029.5
orbit_Inclination              = 3.9302
orbit_PericenterDistance       = 1.39787
orbit_TimeAtPericenter         = 2460335.1361
orbit_good                     = 312
orbit_visualization_period     = 2766.676802615196
radius                         = 5
slope_parameter                = 8
type                           = comet

